NORAD_CAT_ID,OBJECT_NAME,OBJECT_TYPE,EPOCH,MEAN_MOTION,ECCENTRICITY,INCLINATION,RA_OF_ASC_NODE,ARG_OF_PERICENTER,MEAN_ANOMALY,BSTAR,MEAN_MOTION_DOT,MEAN_MOTION_DDOT,TLE_LINE0,TLE_LINE1,TLE_LINE2,SEMIMAJOR_AXIS,PERIOD,APOGEE,PERIGEE,DECAYED
53802.0,STARLINK-4726,PAYLOAD,2022-12-06 22:00:00,15.25721349,0.0001436,53.2169,200.9961,74.9604,86.2345,-0.049678,-0.01181895,0.0,0 STARLINK-4726,1 53802U 22111AF  22340.91667824 -.01181895  00000-0 -49678-1 0  9999,2 53802  53.2169 200.9961 0001436  74.9604  86.2345 15.25721349  1308,6866.757,94.382,489.608,487.636,0.0
53802.0,STARLINK-4726,PAYLOAD,2022-12-07 14:00:01,15.23010054,0.0001723,53.2167,197.9261,81.9407,141.5788,0.0148669999999999,0.00372429,0.0,0 STARLINK-4726,1 53802U 22111AF  22341.58334491  .00372429  00000-0  14867-1 0  9998,2 53802  53.2167 197.9261 0001723  81.9407 141.5788 15.23010054 13640,6874.904,94.55,497.954,495.585,0.0
53802.0,STARLINK-4726,PAYLOAD,2022-12-08 00:00:00,15.22724538,0.0001315999999999,53.218,196.0158,66.9497,282.7415,-0.029826,-0.00653946,0.0,0 STARLINK-4726,1 53802U 22111AF  22342.00001157 -.00653946  00000-0 -29826-1 0  9995,2 53802  53.2180 196.0158 0001316  66.9497 282.7415 15.22724538 13700,6875.764,94.567,498.534,496.724,0.0
53802.0,STARLINK-4726,PAYLOAD,2022-12-08 08:00:01,15.22240528,0.0001143,53.2175,194.4859,78.4656,299.247,-0.053609,-0.01151426,0.0,0 STARLINK-4726,1 53802U 22111AF  22342.33334491 -.01151426  00000-0 -53609-1 0  9994,2 53802  53.2175 194.4859 0001143  78.4656 299.2470 15.22240528 13758,6877.221,94.597,499.872,498.3,0.0
53802.0,STARLINK-4726,PAYLOAD,2022-12-08 14:00:01,15.21087227,0.0001729,53.2165,193.3394,61.09,247.4031,-0.018246,-0.00389906,0.0,0 STARLINK-4726,1 53802U 22111AF  22342.58334491 -.00389906  00000-0 -18246-1 0  9994,2 53802  53.2165 193.3394 0001729  61.0900 247.4031 15.21087227  1309,6880.696999999999,94.669,503.752,501.372,0.0
53802.0,STARLINK-4726,PAYLOAD,2022-12-08 22:00:01,15.20816283,0.0001551,53.2174,191.817,46.35,288.3819,-0.055865,-0.01150571,0.0,0 STARLINK-4726,1 53802U 22111AF  22342.91668981 -.01150571  00000-0 -55865-1 0  9998,2 53802  53.2174 191.8170 0001551  46.3500 288.3819 15.20816283  1308,6881.514,94.686,504.446,502.312,0.0
53802.0,STARLINK-4726,PAYLOAD,2022-12-09 06:00:02,15.2002482,0.000137,53.2168,190.2924,60.9111,299.2992,-0.0589049999999999,-0.0118254,0.0,0 STARLINK-4726,1 53802U 22111AF  22343.25002315 -.01182540  00000-0 -58905-1 0  9998,2 53802  53.2168 190.2924 0001370  60.9111 299.2992 15.20024820 13898,6883.903,94.735,506.711,504.825,0.0
53802.0,STARLINK-4726,PAYLOAD,2022-12-09 14:00:01,15.19261208,0.0001437,53.2167,188.77,56.6073,328.0221,-0.063702,-0.01244977,0.0,0 STARLINK-4726,1 53802U 22111AF  22343.58334491 -.01244977  00000-0 -63702-1 0  9991,2 53802  53.2167 188.7700 0001437  56.6073 328.0221 15.19261208  1304,6886.209,94.783,509.064,507.085,0.0
53802.0,STARLINK-4726,PAYLOAD,2022-12-10 08:00:01,15.17355655,0.0001422,53.2175,185.3546,71.1089,95.1952,-0.06156,-0.01146524,0.0,0 STARLINK-4726,1 53802U 22111AF  22344.33335648 -.01146524  00000-0 -61560-1 0  9999,2 53802  53.2175 185.3546 0001422  71.1089  95.1952 15.17355655 14065,6891.973000000001,94.902,514.818,512.8580000000002,0.0
53802.0,STARLINK-4726,PAYLOAD,2022-12-10 14:00:01,15.16745309,0.0001361,53.2174,184.2177,69.5579,22.7737,-0.062621,-0.01145988,0.0,0 STARLINK-4726,1 53802U 22111AF  22344.58334491 -.01145988  00000-0 -62621-1 0  9993,2 53802  53.2174 184.2177 0001361  69.5579  22.7737 15.16745309  1307,6893.821999999999,94.94,516.625,514.749,0.0
53802.0,STARLINK-4726,PAYLOAD,2022-12-11 00:00:00,15.15724838,0.0001535,53.2174,182.3279,62.6066,145.3206,-0.064157,-0.01140706,0.0,0 STARLINK-4726,1 53802U 22111AF  22345.00001157 -.01140706  00000-0 -64157-1 0  9990,2 53802  53.2174 182.3279 0001535  62.6066 145.3206 15.15724838  1303,6896.916,95.004,519.84,517.722,0.0
53802.0,STARLINK-4726,PAYLOAD,2022-12-11 08:00:01,15.14913817,0.0001546,53.2175,180.8146,57.3052,170.0616,-0.065935,-0.01145135,0.0,0 STARLINK-4726,1 53802U 22111AF  22345.33335648 -.01145135  00000-0 -65935-1 0  9997,2 53802  53.2175 180.8146 0001546  57.3052 170.0616 15.14913817 14218,6899.377,95.055,522.309,520.1759999999998,0.0
53802.0,STARLINK-4726,PAYLOAD,2022-12-11 14:00:01,15.14304279,0.0001496,53.2176,179.6822,68.0346,83.1594,-0.067159,-0.01146256,0.0,0 STARLINK-4726,1 53802U 22111AF  22345.58334491 -.01146256  00000-0 -67159-1 0  9994,2 53802  53.2176 179.6822 0001496  68.0346  83.1594 15.14304279  1306,6901.229,95.093,524.126,522.061,0.0
53802.0,STARLINK-4726,PAYLOAD,2022-12-11 22:00:01,15.13490229,0.0001692,53.2174,178.1759,53.8506,115.0707,-0.068723,-0.01146266,0.0,0 STARLINK-4726,1 53802U 22111AF  22345.91668981 -.01146266  00000-0 -68723-1 0  9994,2 53802  53.2174 178.1759 0001692  53.8506 115.0707 15.13490229  1306,6903.703,95.144,526.736,524.4,0.0
53802.0,STARLINK-4726,PAYLOAD,2022-12-12 08:00:01,15.12471937,0.0001509,53.2175,176.2917,52.6568,226.9091,-0.070566,-0.01143887,0.0,0 STARLINK-4726,1 53802U 22111AF  22346.33334491 -.01143887  00000-0 -70566-1 0  9991,2 53802  53.2175 176.2917 0001509  52.6568 226.9091 15.12471937 14366,6906.801,95.208,529.7080000000002,527.624,0.0
53802.0,STARLINK-4726,PAYLOAD,2022-12-12 14:00:01,15.11862746,0.0001528,53.2176,175.1637,68.0442,133.2115,-0.071897,-0.01145582,0.0,0 STARLINK-4726,1 53802U 22111AF  22346.58334491 -.01145582  00000-0 -71897-1 0  9990,2 53802  53.2176 175.1637 0001528  68.0442 133.2115 15.11862746  1305,6908.656,95.247,531.577,529.466,0.0
53802.0,STARLINK-4726,PAYLOAD,2022-12-12 22:00:00,15.11047696,0.0001759,53.2175,173.6629,50.022,165.9649,-0.073416,-0.01143658,0.0,0 STARLINK-4726,1 53802U 22111AF  22346.91667824 -.01143658  00000-0 -73416-1 0  9997,2 53802  53.2175 173.6629 0001759  50.0220 165.9649 15.11047696  1302,6911.141,95.298,534.221,531.79,0.0
53802.0,STARLINK-4726,PAYLOAD,2022-12-13 06:00:00,15.10238264,0.0001705,53.2174,172.1609,54.6495,175.0908,-0.075753,-0.0115299,0.0,0 STARLINK-4726,1 53802U 22111AF  22347.25001157 -.01152990  00000-0 -75753-1 0  9991,2 53802  53.2174 172.1609 0001705  54.6495 175.0908 15.10238264 14506,6913.61,95.349,536.654,534.2959999999998,0.0
53802.0,STARLINK-4726,PAYLOAD,2022-12-13 14:00:01,15.09290104,0.0001747,53.2176,170.6622,60.6909,181.8415,-0.036409,-0.00550091,0.0,0 STARLINK-4726,1 53802U 22111AF  22347.58334491 -.00550091  00000-0 -36409-1 0  9995,2 53802  53.2176 170.6622 0001747  60.6909 181.8415 15.09290104 14551,6916.505,95.409,539.578,537.1619999999998,0.0
53802.0,STARLINK-4726,PAYLOAD,2022-12-13 22:00:00,15.08831915,0.0001826,53.2175,169.1668,51.6779,202.7552,0.00054444,8.385e-05,0.0,0 STARLINK-4726,1 53802U 22111AF  22347.91667824  .00008385  00000-0  54444-3 0  9994,2 53802  53.2175 169.1668 0001826  51.6779 202.7552 15.08831915 14607,6917.905,95.438,541.033,538.507,0.0
53802.0,STARLINK-4726,PAYLOAD,2022-12-14 14:00:01,15.08889347,0.0001576999999999,53.2168,166.1698,64.4774,213.1174,-0.0064576,-0.00101749,0.0,0 STARLINK-4726,1 53802U 22111AF  22348.58334491 -.00101749  00000-0 -64576-2 0  9995,2 53802  53.2168 166.1698 0001577  64.4774 213.1174 15.08889347  1300,6917.73,95.434,540.685,538.504,0.0
53802.0,STARLINK-4726,PAYLOAD,2022-12-14 22:00:00,15.08801648,0.0001761999999999,53.2166,164.6749,58.372,230.8404,0.0010613,0.00016625,0.0,0 STARLINK-4726,1 53802U 22111AF  22348.91667824  .00016625  00000-0  10613-2 0  9990,2 53802  53.2166 164.6749 0001762  58.3720 230.8404 15.08801648  1307,6917.998000000001,95.44,541.082,538.644,0.0
53802.0,STARLINK-4726,PAYLOAD,2022-12-15 02:00:01,15.08832074,0.0001674,53.2162,163.9261,58.2218,56.7627,-0.0038349,-0.00060793,0.0,0 STARLINK-4726,1 53802U 22111AF  22349.08334491 -.00060793  00000-0 -38349-2 0  9993,2 53802  53.2162 163.9261 0001674  58.2218  56.7627 15.08832074 14782,6917.905,95.438,540.928,538.612,0.0
53802.0,STARLINK-4726,PAYLOAD,2022-12-15 14:00:01,15.08828509,0.0001433,53.2165,161.6811,62.0705,250.245,0.00098228,0.00015375,0.0,0 STARLINK-4726,1 53802U 22111AF  22349.58334491  .00015375  00000-0  98228-3 0  9995,2 53802  53.2165 161.6811 0001433  62.0705 250.2450 15.08828509  1305,6917.916,95.438,540.7719999999998,538.789,0.0
53802.0,STARLINK-4726,PAYLOAD,2022-12-15 16:00:00,15.08829887,0.0001462,53.2163,161.3076,58.977,346.2346,0.0011167999999999,0.00017526,0.0,0 STARLINK-4726,1 53802U 22111AF  22349.66667824  .00017526  00000-0  11168-2 0  9990,2 53802  53.2163 161.3076 0001462  58.9770 346.2346 15.08829887 14866,6917.911,95.438,540.788,538.765,0.0
53802.0,STARLINK-4726,PAYLOAD,2022-12-15 22:00:00,15.08826757,0.00015,53.2161,160.1862,52.5565,271.3435,0.0032102,0.00051155,0.0,0 STARLINK-4726,1 53802U 22111AF  22349.91667824  .00051155  00000-0  32102-2 0  9995,2 53802  53.2161 160.1862 0001500  52.5565 271.3435 15.08826757  1304,6917.920999999999,95.438,540.8240000000002,538.748,0.0
53802.0,STARLINK-4726,PAYLOAD,2022-12-16 14:00:01,15.08890462,0.0001339,53.216,157.1921,58.28,288.8424,-0.0044688,-0.00070807,0.0,0 STARLINK-4726,1 53802U 22111AF  22350.58334491 -.00070807  00000-0 -44688-2 0  9990,2 53802  53.2160 157.1921 0001339  58.2800 288.8424 15.08890462  1305,6917.726,95.434,540.5169999999998,538.665,0.0
53802.0,STARLINK-4726,PAYLOAD,2022-12-16 22:00:00,15.08818351,0.0001429,53.2157,155.697,48.3996,310.3534,0.0027661,0.00043983,0.0,0 STARLINK-4726,1 53802U 22111AF  22350.91667824  .00043983  00000-0  27661-2 0  9991,2 53802  53.2157 155.6970 0001429  48.3996 310.3534 15.08818351  1304,6917.946999999999,95.439,540.8,538.823,0.0
53802.0,STARLINK-4726,PAYLOAD,2022-12-17 00:00:00,15.08837179,0.0001422,53.2155,155.3226,47.289,44.3554,0.00077041,0.00011993,0.0,0 STARLINK-4726,1 53802U 22111AF  22351.00001157  .00011993  00000-0  77041-3 0  9997,2 53802  53.2155 155.3226 0001422  47.2890  44.3554 15.08837179 15071,6917.889,95.438,540.738,538.77,0.0
